satname,norad_id,inclination_deg,eccentricity,mean_motion_rev_per_day,perigee_km,apogee_km,l1,l2
STARLINK-1540,46051,53.1599,0.0001958,15.30195132,473.8877152472469,476.571493609541,1 46051U 20055AA  26101.86383242  .00001773  00000+0  72007-4 0  9991,2 46051  53.1599 319.7505 0001958 103.1839 256.9380 15.30195132314166
STARLINK-1541,46052,53.1595,0.0001195,15.38950278,448.3963212183571,450.0280576746354,1 46052U 20055AB  26101.91668980  .00993021  00000+0  23417-1 0  9997,2 46052  53.1595 319.2999 0001195  81.8311  35.1426 15.38950278  6002
STARLINK-1543,46053,53.1613,0.0001557,15.30200941,474.14519328463484,476.2793262441264,1 46053U 20055AC  26101.33711125  .00001872  00000+0  75307-4 0  9996,2 46053  53.1613 322.2641 0001557  99.7780 260.3397 15.30200941314077
STARLINK-1548,46054,53.161,0.0001336,15.30202197,474.292902621105,476.1241165412648,1 46054U 20055AD  26101.01790418  .00003646  00000+0  13515-3 0  9997,2 46054  53.1610 323.7522 0001336  83.3527 276.7626 15.30202197314028
STARLINK-1554,46055,53.16,8.08e-05,15.31069594,472.06630631610824,473.17338862266024,1 46055U 20055AE  26101.86424453  .00178046  00000+0  57248-2 0  9991,2 46055  53.1600 319.9375 0000808  12.4484 347.6537 15.31069594314155
STARLINK-1564,46058,53.1589,0.0001317,15.30189236,474.34461827117957,476.14979967182353,1 46058U 20055AH  26101.86287284  .00001015  00000+0  46395-4 0  9997,2 46058  53.1589 320.2818 0001317  95.1713 264.9438 15.30189236314145
STARLINK-1570,46059,53.1594,4.6e-05,15.30702609,473.39959500558416,474.029965369361,1 46059U 20055AJ  26101.89205975  .00170050  00000+0  55367-2 0  9991,2 46059  53.1594 319.6894 0000460  38.4034 321.7000 15.30702609314111
STARLINK-1572,46060,53.1615,0.0001428,15.30171074,474.32276759290744,476.28010961097243,1 46060U 20055AK  26101.84387896  .00004128  00000+0  15156-3 0  9996,2 46060  53.1615 320.1175 0001428  96.5228 263.5936 15.30171074314118
STARLINK-1573,46061,53.1602,9.36e-05,15.30189462,474.6050574696119,475.8880108672083,1 46061U 20055AL  26101.87648211 -.00001294  00000+0 -31584-4 0  9998,2 46061  53.1602 319.7156 0000936  74.2876 285.8227 15.30189462314157
STARLINK-1577,46063,53.1605,9.98e-05,15.30194946,474.54619375132097,475.91412583641704,1 46063U 20055AN  26101.90281608  .00000190  00000+0  18552-4 0  9999,2 46063  53.1605 319.5600 0000998  68.4933 291.6175 15.30194946314151
STARLINK-1583,46064,53.16,8.45e-05,15.30182485,474.68825388208825,475.8464792200357,1 46064U 20055AP  26101.87332620 -.00001219  00000+0 -29055-4 0  9992,2 46064  53.1600 319.7336 0000845 103.4482 256.6613 15.30182485314147
STARLINK-1536,46070,53.0995,0.0001178,15.19676369,506.00687479031785,507.62897017005434,1 46070U 20055AV  26101.91668980  .00047564  00000+0  22020-2 0  9999,2 46070  53.0995 306.8509 0001178 126.9987 161.4500 15.19676369  5881
STARLINK-1542,46073,53.0542,0.0001327,15.06395684,546.305790379256,548.1437813972298,1 46073U 20055AY  26101.84983725  .00001190  00000+0  98802-4 0  9999,2 46073  53.0542 307.7553 0001327  93.2073 266.9067 15.06395684314302
STARLINK-1549,46074,53.0515,0.0001352,15.25350714,488.80397291659483,490.66104483179333,1 46074U 20055AZ  26101.91668980  .00021917  00000+0  86864-3 0  9994,2 46074  53.0515 306.4412 0001352  87.6658 159.6901 15.25350714  5787
STARLINK-1551,46075,53.1483,0.0001364,15.27864506,481.2615653240755,483.13306452518646,1 46075U 20055BA  26101.91668980  .01531061  00000+0  50645-1 0  9998,2 46075  53.1483 306.6301 0001364  50.0386 349.3045 15.27864506  5695
STARLINK-1552,46076,53.1491,7.13e-05,15.281835,480.7535208979152,481.731668428115,1 46076U 20055BB  26101.91668980  .01373196  00000+0  45420-1 0  9997,2 46076  53.1491 306.6102 0000713 118.2292 152.6273 15.28183500  5837
STARLINK-1559,46077,53.0237,0.0002021,15.33180358,464.9474092182709,467.713943052966,1 46077U 20055BC  26101.78139824  .00050054  00000+0  15407-2 0  9990,2 46077  53.0237 279.4999 0002021 171.4801 188.6234 15.33180358314650
STARLINK-1566,46079,53.1501,0.0002014,15.29091822,477.1449554433457,479.90681925437,1 46079U 20055BE  26101.91668980  .00093736  00000+0  32460-2 0  9999,2 46079  53.1501 306.5856 0002014  89.7208  94.3941 15.29091822  5898
STARLINK-1568,46080,53.0588,0.0004193,15.49272278,416.00370684381505,421.703663232287,1 46080U 20055BF  26101.74663360  .00040372  00000+0  73090-3 0  9992,2 46080  53.0588 234.9013 0004193 249.2975 110.7584 15.49272278315312
STARLINK-1578,46082,53.1055,6.73e-05,15.21224829,501.681940270847,502.60802622579195,1 46082U 20055BH  26101.91668980  .00049237  00000+0  21780-2 0  9993,2 46082  53.1055 306.7998 0000673 122.1380 212.0886 15.21224829  5936
STARLINK-1579,46083,53.1441,0.0001555,15.26969972,483.8091488490418,485.94354600009046,1 46083U 20055BJ  26101.91668980  .01489745  00000+0  50758-1 0  9993,2 46083  53.1441 306.6624 0001555 110.5996 111.2423 15.26969972  6001
STARLINK-1593,46119,53.0364,0.0005448,15.90266029,297.8987257151175,305.1768993908754,1 46119U 20057C   26101.91668980  .00402751  71786-4  13049-2 0  9993,2 46119  53.0364 103.2778 0005448  54.7521 318.2765 15.90266029  6049
STARLINK-1621,46127,53.0369,0.0004863,15.9624353,281.6114571142489,288.0918798932362,1 46127U 20057L   26101.91668980  .00511237  11897-3  12072-2 0  9993,2 46127  53.0369  75.6334 0004863  67.5687   3.6244 15.96243530  6223
STARLINK-1622,46128,53.0197,0.0001806,15.70684694,355.72263703411863,358.1553464823419,1 46128U 20057M   26101.85557993  .00083788  00000+0  66201-3 0  9997,2 46128  53.0197  60.7603 0001806  22.5687 337.5408 15.70684694312562
STARLINK-1623,46129,53.046,0.0003359,15.60072622,385.1745524967564,389.7196719033327,1 46129U 20057N   26101.39150154  .00092224  00000+0  11105-2 0  9992,2 46129  53.0460  97.5988 0003359   6.6607 353.4449 15.60072622312013
STARLINK-1624,46130,53.0375,0.0008069,15.79630631,326.07238830355436,336.90037851970374,1 46130U 20057P   26101.91668980  .00177357  00000+0  93362-3 0  9990,2 46130  53.0375  67.2306 0008069  89.1886 116.9218 15.79630631  6135
STARLINK-1596,46141,53.0383,0.000214,15.5049903,413.81424568810235,416.7218230428107,1 46141U 20057AA  26101.62157381  .00085137  00000+0  14594-2 0  9991,2 46141  53.0383  73.3416 0002140  75.0602 285.0642 15.50499030312370
STARLINK-1597,46142,53.0451,0.0005006,15.64346634,371.7378048032688,378.49916419434885,1 46142U 20057AB  26101.91668980  .00143082  00000+0  14471-2 0  9994,2 46142  53.0451 135.0221 0005006 334.9439 112.9085 15.64346634  6168
